IRIDIUM 155             
1 43573U 18061E   24218.86803810  .00000028  00000+0  31064-5 0  9997
2 43573  86.4009 340.9944 0002279  87.6650 272.4807 14.34217857315850
IRIDIUM 154             
1 43574U 18061F   24218.77924128  .00000022  00000+0  87966-6 0  9991
2 43574  86.4013 341.1314 0002247  99.8638 260.2811 14.34217840315881
IRIDIUM 163             
1 43575U 18061G   24218.82998040  .00000601  00000+0  20747-3 0  9996
2 43575  86.4011 341.0471 0002242  96.4482 263.6969 14.34218711315865
IRIDIUM 156             
1 43576U 18061H   24218.87437924  .00000106  00000+0  30790-4 0  9991
2 43576  86.4011 341.0351 0002069  91.4948 268.6485 14.34217720315869
IRIDIUM 164             
1 43577U 18061J   24218.85535002  .00000542  00000+0  18630-3 0  9998
2 43577  86.4013 341.0726 0001944  99.9925 260.1490 14.34218516315909
IRIDIUM 159             
1 43578U 18061K   24218.89340442  .00000132  00000+0  39922-4 0  9998
2 43578  86.4010 341.0076 0002201  99.4622 260.6822 14.34218520315876
IRIDIUM 180             
1 43922U 19002A   24218.68359790  .00000279  00000+0  92558-4 0  9996
2 43922  86.3946 277.9684 0002364  97.9240 262.2224 14.34217165291452
IRIDIUM 176             
1 43923U 19002B   24218.87020269  .00001613  00000+0  25186-3 0  9999
2 43923  86.6074 277.9086 0002215  98.0259 262.1209 14.72271489299159
IRIDIUM 168             
1 43924U 19002C   24218.67725886  .00000425  00000+0  14476-3 0  9995
2 43924  86.3947 278.0291 0002234  96.4456 263.6994 14.34221352291430
IRIDIUM 173             
1 43925U 19002D   24218.87387480  .00000316  00000+0  10561-3 0  9992
2 43925  86.3946 277.8637 0002284  96.2023 263.9433 14.34217385291447
IRIDIUM 169             
1 43926U 19002E   24218.78813802  .00000600  00000+0  18972-3 0  9995
2 43926  86.4245 309.5346 0004116  83.8015 276.3652 14.38611960292409
IRIDIUM 172             
1 43927U 19002F   24218.86753405  .00000059  00000+0  13972-4 0  9991
2 43927  86.3946 277.8721 0002201  93.0665 267.0783 14.34217896291450
IRIDIUM 175             
1 43928U 19002G   24218.79663752  .00001542  00000+0  24050-3 0  9995
2 43928  86.1475 248.2747 0002774  90.0007 270.1528 14.72253247299135
IRIDIUM 171             
1 43929U 19002H   24218.70896669  .00000374  00000+0  12637-3 0  9992
2 43929  86.3954 278.1696 0002087  93.6659 266.4776 14.34217062291424
IRIDIUM 170             
1 43930U 19002J   24218.87638338  .00001650  00000+0  25771-3 0  9990
2 43930  86.6075 277.9110 0002282  92.3483 267.7995 14.72263768299161
IRIDIUM 167             
1 43931U 19002K   24218.91194679  .00000502  00000+0  17234-3 0  9991
2 43931  86.3945 277.8700 0002156  92.3942 267.7501 14.34215032291455
IRIDIUM 181             
1 56726U 23068S   24218.87637891  .00000833  00000+0  24017-3 0  9991
2 56726  86.8675 334.0374 0002200  90.5789 269.5664 14.43585046 64305
IRIDIUM 177             
1 56727U 23068T   24218.91238818  .00002939  00000+0  38322-3 0  9996
2 56727  86.1972 291.7534 0002186  90.5369 269.6102 14.80244101 65734
IRIDIUM 174             
1 56728U 23068U   24218.90696507  .00002926  00000+0  38154-3 0  9998
2 56728  86.1977 291.8636 0002318  87.7093 272.4393 14.80238547 65734
IRIDIUM 178             
1 56729U 23068V   24218.76631939  .00003390  00000+0  44236-3 0  9995
2 56729  86.5805 311.7480 0002613  86.3985 273.7535 14.80257106 65713
IRIDIUM 179             
1 56730U 23068W   24218.76089546  .00003492  00000+0  45587-3 0  9991
2 56730  86.6822 316.5096 0002353  93.9444 266.2047 14.80254026 65719
